STARLETTE               
1 07646U 75010A   08237.90056890 -.00000141  00000-0  14956-5 0  7088
2 07646  49.8240 220.2461 0205836 174.1074 186.2310 13.82270411694703
LAGEOS 1                
1 08820U 76039A   08237.17984487  .00000008  00000-0  10000-3 0  6530
2 08820 109.8345 110.7185 0044636 254.8513 104.7359  6.38664757498073
EGP                     
1 16908U 86061A   08237.53731275 -.00000083  00000-0  10000-3 0  6867
2 16908  50.0120 351.1046 0011586 181.5322 178.5478 12.44460367670669
LAGEOS 2                
1 22195U 92070B   08237.58806899 -.00000009  00000-0  10000-3 0  8623
2 22195  52.6591  58.3003 0137127 222.8370 136.1436  6.47294126374462
STELLA                  
1 22824U 93061B   08237.42651729 -.00000203  00000-0 -65971-4 0   601
2 22824  98.4305 189.3804 0007523  92.8800 267.3249 14.27279953776851
WESTPAC                 
1 25398U 98043E   08237.74840389 -.00000027  00000-0  61169-5 0  3176
2 25398  98.3602 268.6061 0001880  37.2490 322.8820 14.22671990525860
GRACE 1                 
1 27391U 02012A   08237.78068376  .00000366  00000-0  10049-4 0  9771
2 27391  89.0076  42.5980 0016200 167.4035 192.7654 15.33908436359875
GRACE 2                 
1 27392U 02012B   08238.17184337  .00000415  00000-0  11550-4 0  9786
2 27392  89.0077  42.5566 0017170 168.3024 191.8661 15.33911272359939
